{
  "type": "FeatureCollection",
  "features": [
    {
      "type": "Feature",
      "properties": {
        "norad_id": 27954,
        "name": "GALAXY 13 (HORIZONS-1)",
        "group": "intelsat",
        "lat": 0.921580939575663,
        "lon": 169.00253855351704,
        "alt_km": 35785.09944050032,
        "timestamp": "2025-12-11T15:53:39.209768+00:00",
        "meta_object_name": "GALAXY 13 (HORIZONS-1)",
        "meta_object_id": "2003-044A",
        "meta_epoch": "2025-12-11T04:14:15.567648",
        "meta_mean_motion": 1.00270843,
        "meta_eccentricity": 0.00020347,
        "meta_inclination": 0.9315,
        "meta_ra_of_asc_node": 86.49,
        "meta_arg_of_pericenter": 165.3304,
        "meta_mean_anomaly": 101.8836,
        "meta_ephemeris_type": 0,
        "meta_classification_type": "U",
        "meta_norad_cat_id": 27954,
        "meta_element_set_no": 999,
        "meta_rev_at_epoch": 4468,
        "meta_bstar": 0,
        "meta_mean_motion_dot": 1.39e-06,
        "meta_mean_motion_ddot": 0,
        "tle_line1": "1 27954U 03044A   25345.17656907  .00000139  00000+0  00000+0 0  9999",
        "tle_line2": "2 27954   0.9315  86.4900 0002034 165.3304 101.8836  1.00270843 44689"
      },
      "geometry": {
        "type": "Point",
        "coordinates": [
          169.00253855351704,
          0.921580939575663
        ]
      }
    },
    {
      "type": "Feature",
      "properties": {
        "norad_id": 28358,
        "name": "INTELSAT 10-02",
        "group": "intelsat",
        "lat": -0.02435749669042682,
        "lon": -41.94161919195658,
        "alt_km": 35775.12126089713,
        "timestamp": "2025-12-11T15:53:39.209780+00:00",
        "meta_object_name": "INTELSAT 10-02",
        "meta_object_id": "2004-022A",
        "meta_epoch": "2025-12-11T03:14:06.328608",
        "meta_mean_motion": 1.00278861,
        "meta_eccentricity": 0.0002196,
        "meta_inclination": 0.0236,
        "meta_ra_of_asc_node": 64.8116,
        "meta_arg_of_pericenter": 267.1758,
        "meta_mean_anomaly": 155.6608,
        "meta_ephemeris_type": 0,
        "meta_classification_type": "U",
        "meta_norad_cat_id": 28358,
        "meta_element_set_no": 999,
        "meta_rev_at_epoch": 7867,
        "meta_bstar": 0,
        "meta_mean_motion_dot": -4e-08,
        "meta_mean_motion_ddot": 0,
        "tle_line1": "1 28358U 04022A   25345.13479547 -.00000004  00000+0  00000+0 0  9996",
        "tle_line2": "2 28358   0.0236  64.8116 0002196 267.1758 155.6608  1.00278861 78671"
      },
      "geometry": {
        "type": "Point",
        "coordinates": [
          -41.94161919195658,
          -0.02435749669042682
        ]
      }
    },
    {
      "type": "Feature",
      "properties": {
        "norad_id": 28626,
        "name": "XM-3 (RHYTHM)",
        "group": "intelsat",
        "lat": 0.010284315185011548,
        "lon": 78.48691244149835,
        "alt_km": 36159.83413527998,
        "timestamp": "2025-12-11T15:53:39.209792+00:00",
        "meta_object_name": "XM-3 (RHYTHM)",
        "meta_object_id": "2005-008A",
        "meta_epoch": "2025-12-11T05:31:45.645888",
        "meta_mean_motion": 0.98953084,
        "meta_eccentricity": 0.00014728,
        "meta_inclination": 0.171,
        "meta_ra_of_asc_node": 81.3808,
        "meta_arg_of_pericenter": 267.9765,
        "meta_mean_anomaly": 295.2688,
        "meta_ephemeris_type": 0,
        "meta_classification_type": "U",
        "meta_norad_cat_id": 28626,
        "meta_element_set_no": 999,
        "meta_rev_at_epoch": 4073,
        "meta_bstar": 0,
        "meta_mean_motion_dot": -1.97e-06,
        "meta_mean_motion_ddot": 0,
        "tle_line1": "1 28626U 05008A   25345.23038942 -.00000197  00000+0  00000+0 0  9993",
        "tle_line2": "2 28626   0.1710  81.3808 0001472 267.9765 295.2688  0.98953084 40739"
      },
      "geometry": {
        "type": "Point",
        "coordinates": [
          78.48691244149835,
          0.010284315185011548
        ]
      }
    },
    {
      "type": "Feature",
      "properties": {
        "norad_id": 28659,
        "name": "DIRECTV 8",
        "group": "intelsat",
        "lat": -0.002669715559491352,
        "lon": -160.0425444633533,
        "alt_km": 35780.350409167746,
        "timestamp": "2025-12-11T15:53:39.209804+00:00",
        "meta_object_name": "DIRECTV 8",
        "meta_object_id": "2005-019A",
        "meta_epoch": "2025-12-11T00:57:40.452192",
        "meta_mean_motion": 1.00272438,
        "meta_eccentricity": 0.00031212,
        "meta_inclination": 0.012,
        "meta_ra_of_asc_node": 43.9684,
        "meta_arg_of_pericenter": 221.3482,
        "meta_mean_anomaly": 70.068,
        "meta_ephemeris_type": 0,
        "meta_classification_type": "U",
        "meta_norad_cat_id": 28659,
        "meta_element_set_no": 999,
        "meta_rev_at_epoch": 7518,
        "meta_bstar": 0,
        "meta_mean_motion_dot": 6e-08,
        "meta_mean_motion_ddot": 0,
        "tle_line1": "1 28659U 05019A   25345.04005153  .00000006  00000+0  00000+0 0  9996",
        "tle_line2": "2 28659   0.0120  43.9684 0003121 221.3482  70.0680  1.00272438 75187"
      },
      "geometry": {
        "type": "Point",
        "coordinates": [
          -160.0425444633533,
          -0.002669715559491352
        ]
      }
    },
    {
      "type": "Feature",
      "properties": {
        "norad_id": 28702,
        "name": "GALAXY 28 (G-28)",
        "group": "intelsat",
        "lat": 1.4314956319737688,
        "lon": -129.64459321558292,
        "alt_km": 35776.62872486152,
        "timestamp": "2025-12-11T15:53:39.209816+00:00",
        "meta_object_name": "GALAXY 28 (G-28)",
        "meta_object_id": "2005-022A",
        "meta_epoch": "2025-12-11T04:52:38.653824",
        "meta_mean_motion": 1.00270733,
        "meta_eccentricity": 0.00027163,
        "meta_inclination": 2.8148,
        "meta_ra_of_asc_node": 81.2995,
        "meta_arg_of_pericenter": 182.5228,
        "meta_mean_anomaly": 160.8173,
        "meta_ephemeris_type": 0,
        "meta_classification_type": "U",
        "meta_norad_cat_id": 28702,
        "meta_element_set_no": 999,
        "meta_rev_at_epoch": 5008,
        "meta_bstar": 0,
        "meta_mean_motion_dot": -1.81e-06,
        "meta_mean_motion_ddot": 0,
        "tle_line1": "1 28702U 05022A   25345.20322516 -.00000181  00000+0  00000+0 0  9997",
        "tle_line2": "2 28702   2.8148  81.2995 0002716 182.5228 160.8173  1.00270733 50084"
      },
      "geometry": {
        "type": "Point",
        "coordinates": [
          -129.64459321558292,
          1.4314956319737688
        ]
      }
    },
    {
      "type": "Feature",
      "properties": {
        "norad_id": 29236,
        "name": "GALAXY 16 (G-16)",
        "group": "intelsat",
        "lat": 0.007464412385350917,
        "lon": -139.99703155020686,
        "alt_km": 35776.848837475736,
        "timestamp": "2025-12-11T15:53:39.209828+00:00",
        "meta_object_name": "GALAXY 16 (G-16)",
        "meta_object_id": "2006-023A",
        "meta_epoch": "2025-12-11T05:00:38.584224",
        "meta_mean_motion": 1.00272313,
        "meta_eccentricity": 0.00026932,
        "meta_inclination": 0.0366,
        "meta_ra_of_asc_node": 150.4834,
        "meta_arg_of_pericenter": 106.5735,
        "meta_mean_anomaly": 159.2686,
        "meta_ephemeris_type": 0,
        "meta_classification_type": "U",
        "meta_norad_cat_id": 29236,
        "meta_element_set_no": 999,
        "meta_rev_at_epoch": 7108,
        "meta_bstar": 0,
        "meta_mean_motion_dot": -1.21e-06,
        "meta_mean_motion_ddot": 0,
        "tle_line1": "1 29236U 06023A   25345.20877991 -.00000121  00000+0  00000+0 0  9998",
        "tle_line2": "2 29236   0.0366 150.4834 0002693 106.5735 159.2686  1.00272313 71083"
      },
      "geometry": {
        "type": "Point",
        "coordinates": [
          -139.99703155020686,
          0.007464412385350917
        ]
      }
    },
    {
      "type": "Feature",
      "properties": {
        "norad_id": 29494,
        "name": "DIRECTV 9S",
        "group": "intelsat",
        "lat": 1.3646104745076792,
        "lon": -142.1896327809471,
        "alt_km": 35776.70948184509,
        "timestamp": "2025-12-11T15:53:39.209840+00:00",
        "meta_object_name": "DIRECTV 9S",
        "meta_object_id": "2006-043A",
        "meta_epoch": "2025-12-11T05:00:38.584224",
        "meta_mean_motion": 1.00271766,
        "meta_eccentricity": 0.00030737,
        "meta_inclination": 1.9365,
        "meta_ra_of_asc_node": 83.2249,
        "meta_arg_of_pericenter": 179.5337,
        "meta_mean_anomaly": 151.3624,
        "meta_ephemeris_type": 0,
        "meta_classification_type": "U",
        "meta_norad_cat_id": 29494,
        "meta_element_set_no": 999,
        "meta_rev_at_epoch": 4949,
        "meta_bstar": 0,
        "meta_mean_motion_dot": -1.07e-06,
        "meta_mean_motion_ddot": 0,
        "tle_line1": "1 29494U 06043A   25345.20877991 -.00000107  00000+0  00000+0 0  9990",
        "tle_line2": "2 29494   1.9365  83.2249 0003073 179.5337 151.3624  1.00271766 49498"
      },
      "geometry": {
        "type": "Point",
        "coordinates": [
          -142.1896327809471,
          1.3646104745076792
        ]
      }
    }
  ]
}